{
    "links": {
        "self": "http://www.neowsapp.com/rest/v1/neo/3802093?api_key=iIulBulltgU6a56xZRHN4H3l9WmuAYTsLGpBGhQ2"
    },
    "id": "3802093",
    "neo_reference_id": "3802093",
    "name": "(2018 FV4)",
    "designation": "2018 FV4",
    "nasa_jpl_url": "http://ssd.jpl.nasa.gov/sbdb.cgi?sstr=3802093",
    "absolute_magnitude_h": 23.8,
    "estimated_diameter": {
        "kilometers": {
            "estimated_diameter_min": 0.046190746,
            "estimated_diameter_max": 0.1032856481
        },
        "meters": {
            "estimated_diameter_min": 46.1907460282,
            "estimated_diameter_max": 103.2856480504
        },
        "miles": {
            "estimated_diameter_min": 0.0287015901,
            "estimated_diameter_max": 0.0641787064
        },
        "feet": {
            "estimated_diameter_min": 151.544447199,
            "estimated_diameter_max": 338.8636855496
        }
    },
    "is_potentially_hazardous_asteroid": false,
    "close_approach_data": [
        {
            "close_approach_date": "2015-06-12",
            "close_approach_date_full": "2015-Jun-12 10:36",
            "epoch_date_close_approach": 1434105360000,
            "relative_velocity": {
                "kilometers_per_second": "15.1391577462",
                "kilometers_per_hour": "54500.9678864604",
                "miles_per_hour": "33864.781962562"
            },
            "miss_distance": {
                "astronomical": "0.3229631382",
                "lunar": "125.6326607598",
                "kilometers": "48314597.563235634",
                "miles": "30021298.8196703892"
            },
            "orbiting_body": "Earth"
        },
        {
            "close_approach_date": "2018-04-29",
            "close_approach_date_full": "2018-Apr-29 19:13",
            "epoch_date_close_approach": 1525029180000,
            "relative_velocity": {
                "kilometers_per_second": "6.5155745384",
                "kilometers_per_hour": "23456.068338141",
                "miles_per_hour": "14574.6886848854"
            },
            "miss_distance": {
                "astronomical": "0.0452580269",
                "lunar": "17.6053724641",
                "kilometers": "6770504.424642703",
                "miles": "4206996.3684591814"
            },
            "orbiting_body": "Earth"
        },
        {
            "close_approach_date": "2021-03-18",
            "close_approach_date_full": "2021-Mar-18 01:54",
            "epoch_date_close_approach": 1616032440000,
            "relative_velocity": {
                "kilometers_per_second": "15.5481917575",
                "kilometers_per_hour": "55973.4903269129",
                "miles_per_hour": "34779.7501422976"
            },
            "miss_distance": {
                "astronomical": "0.3421249999",
                "lunar": "133.0866249611",
                "kilometers": "51181171.258790213",
                "miles": "31802505.1184544194"
            },
            "orbiting_body": "Earth"
        }
    ],
    "orbital_data": {
        "orbit_id": "16",
        "orbit_determination_date": "2020-09-11 07:39:32",
        "first_observation_date": "2018-03-22",
        "last_observation_date": "2018-05-11",
        "data_arc_in_days": 50,
        "observations_used": 66,
        "orbit_uncertainty": "6",
        "minimum_orbit_intersection": ".0459634",
        "jupiter_tisserand_invariant": "3.627",
        "epoch_osculation": "2459000.5",
        "eccentricity": ".487303429025367",
        "semi_major_axis": "2.053631521170235",
        "inclination": "5.044551810237532",
        "ascending_node_longitude": "221.9891638257586",
        "orbital_period": "1074.935013917744",
        "perihelion_distance": "1.052889838949399",
        "perihelion_argument": "354.856109528977",
        "aphelion_distance": "3.054373203391071",
        "perihelion_time": "2459310.895590172016",
        "mean_anomaly": "256.0472856357468",
        "mean_motion": ".3349039666016015",
        "equinox": "J2000",
        "orbit_class": {
            "orbit_class_type": "AMO",
            "orbit_class_description": "Near-Earth asteroid orbits similar to that of 1221 Amor",
            "orbit_class_range": "1.017 AU < q (perihelion) < 1.3 AU"
        }
    },
    "is_sentry_object": false
}